0 RADIO 8
1 12998U 81120B   13282.52118116 -.00000078  00000-0 -10406-2 0  6607
2 12998 082.9542 109.7593 0017998 232.7054 190.1601 12.03131015397163
0 RADIO 8
1 12998U 81120B   13286.94991203 -.00000106  00000-0 -13744-2 0  6625
2 12998 082.9539 107.3602 0018102 223.3123 292.5319 12.03130336397691
0 RADIO 8
1 12998U 81120B   13289.49861300 -.00000096  00000-0 -12562-2 0  6638
2 12998 082.9542 105.9797 0018177 217.9339 171.8090 12.03129638398008
0 RADIO 8
1 12998U 81120B   13291.49980731 -.00000049  00000-0 -69306-3 0  6649
2 12998 082.9545 104.8957 0018250 213.9427 199.4173 12.03128936398247
0 RADIO 8
1 12998U 81120B   13293.58146031  .00000016  00000-0  75127-4 0  6650
2 12998 082.9547 103.7682 0018314 209.4520 215.8447 12.03128273398495
0 RADIO 8
1 12998U 81120B   13295.93409330  .00000077  00000-0  80454-3 0  6661
2 12998 082.9548 102.4940 0018399 204.5330 325.8272 12.03127790398779
